{
  "type": "FeatureCollection",
  "features": [
    {
      "type": "Feature",
      "properties": {
        "norad_id": 41773,
        "name": "SKYSAT-C2",
        "group": "resource",
        "lat": -63.86470803611618,
        "lon": 31.82388092320708,
        "alt_km": 460.6842921599564,
        "timestamp": "2025-12-18T23:35:48.704594+00:00",
        "meta_object_name": "SKYSAT-C2",
        "meta_object_id": "2016-058D",
        "meta_epoch": "2025-12-18T14:30:19.757376",
        "meta_mean_motion": 15.37400266,
        "meta_eccentricity": 0.00035987,
        "meta_inclination": 97.0353,
        "meta_ra_of_asc_node": 16.8831,
        "meta_arg_of_pericenter": 18.6514,
        "meta_mean_anomaly": 341.4862,
        "meta_ephemeris_type": 0,
        "meta_classification_type": "U",
        "meta_norad_cat_id": 41773,
        "meta_element_set_no": 999,
        "meta_rev_at_epoch": 51726,
        "meta_bstar": 0.00026153985,
        "meta_mean_motion_dot": 9.515e-05,
        "meta_mean_motion_ddot": 0,
        "tle_line1": "1 41773U 16058D   25352.60439534  .00009515  00000+0  26154-3 0  9993",
        "tle_line2": "2 41773  97.0353  16.8831 0003598  18.6514 341.4862 15.37400266517261"
      },
      "geometry": {
        "type": "Point",
        "coordinates": [
          31.82388092320708,
          -63.86470803611618
        ]
      }
    },
    {
      "type": "Feature",
      "properties": {
        "norad_id": 41774,
        "name": "SKYSAT-C3",
        "group": "resource",
        "lat": -73.79185439610761,
        "lon": 51.171667276307694,
        "alt_km": 441.12232500613845,
        "timestamp": "2025-12-18T23:35:48.704604+00:00",
        "meta_object_name": "SKYSAT-C3",
        "meta_object_id": "2016-058E",
        "meta_epoch": "2025-12-18T14:35:37.329216",
        "meta_mean_motion": 15.44601646,
        "meta_eccentricity": 0.00018498,
        "meta_inclination": 96.9291,
        "meta_ra_of_asc_node": 26.0815,
        "meta_arg_of_pericenter": 107.3542,
        "meta_mean_anomaly": 252.791,
        "meta_ephemeris_type": 0,
        "meta_classification_type": "U",
        "meta_norad_cat_id": 41774,
        "meta_element_set_no": 999,
        "meta_rev_at_epoch": 51816,
        "meta_bstar": 0.00033767466,
        "meta_mean_motion_dot": 0.00015636,
        "meta_mean_motion_ddot": 0,
        "tle_line1": "1 41774U 16058E   25352.60807094  .00015636  00000+0  33767-3 0  9993",
        "tle_line2": "2 41774  96.9291  26.0815 0001849 107.3542 252.7910 15.44601646518161"
      },
      "geometry": {
        "type": "Point",
        "coordinates": [
          51.171667276307694,
          -73.79185439610761
        ]
      }
    },
    {
      "type": "Feature",
      "properties": {
        "norad_id": 41785,
        "name": "ALSAT 1B",
        "group": "resource",
        "lat": -41.70180707657984,
        "lon": 11.501908790273541,
        "alt_km": 665.6748479969128,
        "timestamp": "2025-12-18T23:35:48.704615+00:00",
        "meta_object_name": "ALSAT 1B",
        "meta_object_id": "2016-059C",
        "meta_epoch": "2025-12-18T15:37:53.571072",
        "meta_mean_motion": 14.72080312,
        "meta_eccentricity": 0.00107758,
        "meta_inclination": 97.781,
        "meta_ra_of_asc_node": 4.1863,
        "meta_arg_of_pericenter": 86.6929,
        "meta_mean_anomaly": 273.5512,
        "meta_ephemeris_type": 0,
        "meta_classification_type": "U",
        "meta_norad_cat_id": 41785,
        "meta_element_set_no": 999,
        "meta_rev_at_epoch": 49401,
        "meta_bstar": 1.0027634e-05,
        "meta_mean_motion_dot": 1.6e-07,
        "meta_mean_motion_ddot": 0,
        "tle_line1": "1 41785U 16059C   25352.65131448  .00000016  00000+0  10028-4 0  9996",
        "tle_line2": "2 41785  97.7810   4.1863 0010775  86.6929 273.5512 14.72080312494012"
      },
      "geometry": {
        "type": "Point",
        "coordinates": [
          11.501908790273541,
          -41.70180707657984
        ]
      }
    },
    {
      "type": "Feature",
      "properties": {
        "norad_id": 41787,
        "name": "PATHFINDER 1",
        "group": "resource",
        "lat": -68.89112881522404,
        "lon": 16.303445555729112,
        "alt_km": 691.0668833245118,
        "timestamp": "2025-12-18T23:35:48.704625+00:00",
        "meta_object_name": "PATHFINDER 1",
        "meta_object_id": "2016-059E",
        "meta_epoch": "2025-12-18T14:05:51.080064",
        "meta_mean_motion": 14.67331131,
        "meta_eccentricity": 0.0029905,
        "meta_inclination": 97.8136,
        "meta_ra_of_asc_node": 355.0897,
        "meta_arg_of_pericenter": 63.4215,
        "meta_mean_anomaly": 297.005,
        "meta_ephemeris_type": 0,
        "meta_classification_type": "U",
        "meta_norad_cat_id": 41787,
        "meta_element_set_no": 999,
        "meta_rev_at_epoch": 49322,
        "meta_bstar": 0.00011554908,
        "meta_mean_motion_dot": 6.1e-06,
        "meta_mean_motion_ddot": 0,
        "tle_line1": "1 41787U 16059E   25352.58739676  .00000610  00000+0  11555-3 0  9992",
        "tle_line2": "2 41787  97.8136 355.0897 0029905  63.4215 297.0050 14.67331131493229"
      },
      "geometry": {
        "type": "Point",
        "coordinates": [
          16.303445555729112,
          -68.89112881522404
        ]
      }
    },
    {
      "type": "Feature",
      "properties": {
        "norad_id": 41790,
        "name": "SCATSAT 1",
        "group": "resource",
        "lat": -4.267576011765544,
        "lon": -130.8811328823104,
        "alt_km": 626.3397072127327,
        "timestamp": "2025-12-18T23:35:48.704635+00:00",
        "meta_object_name": "SCATSAT 1",
        "meta_object_id": "2016-059H",
        "meta_epoch": "2025-12-18T14:39:12.527424",
        "meta_mean_motion": 14.78955501,
        "meta_eccentricity": 0.00564223,
        "meta_inclination": 98.1457,
        "meta_ra_of_asc_node": 49.354,
        "meta_arg_of_pericenter": 109.4648,
        "meta_mean_anomaly": 251.2671,
        "meta_ephemeris_type": 0,
        "meta_classification_type": "U",
        "meta_norad_cat_id": 41790,
        "meta_element_set_no": 999,
        "meta_rev_at_epoch": 7489,
        "meta_bstar": 0.00016061403,
        "meta_mean_motion_dot": 1.16e-05,
        "meta_mean_motion_ddot": 0,
        "tle_line1": "1 41790U 16059H   25352.61056166  .00001160  00000+0  16061-3 0  9994",
        "tle_line2": "2 41790  98.1457  49.3540 0056422 109.4648 251.2671 14.78955501 74890"
      },
      "geometry": {
        "type": "Point",
        "coordinates": [
          -130.8811328823104,
          -4.267576011765544
        ]
      }
    },
    {
      "type": "Feature",
      "properties": {
        "norad_id": 41875,
        "name": "GOKTURK 1A",
        "group": "resource",
        "lat": -80.62573675176046,
        "lon": 5.112727785872274,
        "alt_km": 692.4166196204942,
        "timestamp": "2025-12-18T23:35:48.704646+00:00",
        "meta_object_name": "GOKTURK 1A",
        "meta_object_id": "2016-073A",
        "meta_epoch": "2025-12-18T15:49:14.632032",
        "meta_mean_motion": 14.62786253,
        "meta_eccentricity": 0.00012546,
        "meta_inclination": 98.1434,
        "meta_ra_of_asc_node": 244.9454,
        "meta_arg_of_pericenter": 80.2519,
        "meta_mean_anomaly": 279.8825,
        "meta_ephemeris_type": 0,
        "meta_classification_type": "U",
        "meta_norad_cat_id": 41875,
        "meta_element_set_no": 999,
        "meta_rev_at_epoch": 48243,
        "meta_bstar": 9.093696e-05,
        "meta_mean_motion_dot": 4.17e-06,
        "meta_mean_motion_ddot": 0,
        "tle_line1": "1 41875U 16073A   25352.65919713  .00000417  00000+0  90937-4 0  9993",
        "tle_line2": "2 41875  98.1434 244.9454 0001254  80.2519 279.8825 14.62786253482431"
      },
      "geometry": {
        "type": "Point",
        "coordinates": [
          5.112727785872274,
          -80.62573675176046
        ]
      }
    },
    {
      "type": "Feature",
      "properties": {
        "norad_id": 41877,
        "name": "RESOURCESAT-2A",
        "group": "resource",
        "lat": 68.04570027988746,
        "lon": -94.6640820899824,
        "alt_km": 813.6935528142194,
        "timestamp": "2025-12-18T23:35:48.704657+00:00",
        "meta_object_name": "RESOURCESAT-2A",
        "meta_object_id": "2016-074A",
        "meta_epoch": "2025-12-18T14:38:04.017408",
        "meta_mean_motion": 14.21602653,
        "meta_eccentricity": 0.00013471,
        "meta_inclination": 98.7757,
        "meta_ra_of_asc_node": 62.4319,
        "meta_arg_of_pericenter": 226.1466,
        "meta_mean_anomaly": 133.96,
        "meta_ephemeris_type": 0,
        "meta_classification_type": "U",
        "meta_norad_cat_id": 41877,
        "meta_element_set_no": 999,
        "meta_rev_at_epoch": 46864,
        "meta_bstar": 0.00016298718,
        "meta_mean_motion_dot": 3.13e-06,
        "meta_mean_motion_ddot": 0,
        "tle_line1": "1 41877U 16074A   25352.60976872  .00000313  00000+0  16299-3 0  9993",
        "tle_line2": "2 41877  98.7757  62.4319 0001347 226.1466 133.9600 14.21602653468649"
      },
      "geometry": {
        "type": "Point",
        "coordinates": [
          -94.6640820899824,
          68.04570027988746
        ]
      }
    }
  ]
}